ONEWEB-0582             
1 54649U 22166H   23059.25001157 -.01082591  00000+0 -75204+0 0  9999
2 54649  87.1596 125.8457 0009508 334.5578 150.0832 14.02404798 12624
ONEWEB-0582             
1 54649U 22166H   23059.58334491 -.01003913  00000+0 -70392+0 0  9999
2 54649  87.1660 125.7406 0009510 332.4378  33.5918 14.01621229  1309
ONEWEB-0582             
1 54649U 22166H   23059.91667824 -.01060894  00000+0 -75589+0 0  9999
2 54649  87.1725 125.6379 0009240 332.4639 274.0525 14.00909933 12723
ONEWEB-0582             
1 54649U 22166H   23061.00001157 -.01016235  00000+0 -75375+0 0  9996
2 54649  87.1929 125.3025 0009176 328.0597 333.9626 13.98493929  1304
ONEWEB-0582             
1 54649U 22166H   23061.25001157 -.01068326  00000+0 -80201+0 0  9995
2 54649  87.1977 125.2254 0009324 328.3180 151.3253 13.97980947 12902
ONEWEB-0582             
1 54649U 22166H   23061.83334491 -.01007916  00000+0 -77054+0 0  9999
2 54649  87.2094 125.0467 0009133 327.0539 205.1725 13.96748868 12982
ONEWEB-0582             
1 54649U 22166H   23061.83334491 -.01007916  00000+0 -77054+0 0  9999
2 54649  87.2094 125.0467 0009133 327.0539 205.1725 13.96748868  1306
ONEWEB-0582             
1 54649U 22166H   23062.41667824 -.00972469  00000+0 -75763+0 0  9991
2 54649  87.2213 124.8686 0009077 324.0812 258.2357 13.95554331 13073
ONEWEB-0582             
1 54649U 22166H   23062.58334491 -.00918375  00000+0 -71773+0 0  9993
2 54649  87.2247 124.8179 0009210 322.8115  16.2234 13.95196587  1302
ONEWEB-0582             
1 54649U 22166H   23062.91667824 -.00963863  00000+0 -76393+0 0  9994
2 54649  87.2316 124.7182 0009014 322.8925 248.9690 13.94544714  1301
